STARLINK-32615          
1 62034U 24216C   26068.81617889  .00018324  00000+0  67424-3 0  9993
2 62034  43.0001 255.7206 0002946 281.4764  78.5756 15.27553790 72736
FLOCK 4G-7              
1 62624U 25009R   26068.79996108  .00011422  00000+0  43168-3 0  9991
2 62624  97.3984 150.8270 0001396 336.9783  23.1393 15.27141471 63725
